QIANFAN-18              
1 60396U 24140T   26065.62758406  .00000094  00000+0  12703-3 0  9990
2 60396  88.9718 290.2954 0013054 311.8714  48.1322 13.51003836 78854
QIANFAN-19              
1 61552U 24185A   26065.56376499  .00000666  00000+0  34058-3 0  9997
2 61552  88.9760  68.3160 0008552  48.5745 311.6176 14.14388356 81519
QIANFAN-20              
1 61553U 24185B   26065.63637655  .00000639  00000+0  36146-3 0  9990
2 61553  88.9758  68.7162 0007874  80.3375 279.8698 14.08934808 81305
QIANFAN-21              
1 61554U 24185C   26065.59007807  .00000836  00000+0  36653-3 0  9998
2 61554  88.9678  67.1379 0013024  90.2822 269.9862 14.22729713 81891
QIANFAN-22              
1 61555U 24185D   26065.58819031  .00000324  00000+0  26905-3 0  9999
2 61555  88.9741  70.0419 0008627  97.7353 262.4799 13.86339419 80553
QIANFAN-23              
1 61556U 24185E   26065.56227007  .00000740  00000+0  36523-3 0  9993
2 61556  88.9753  68.0865 0009502  56.4172 303.7922 14.16393655 81614
QIANFAN-24              
1 61557U 24185F   26065.59235172  .00001037  00000+0  44607-3 0  9991
2 61557  88.9736  67.3508 0010503  36.3025 323.8877 14.23934328 81954
QIANFAN-25              
1 61558U 24185G   26065.56201531  .00000575  00000+0  34231-3 0  9999
2 61558  88.9750  68.6833 0011910  62.9773 297.2624 14.05996177 81284
QIANFAN-26              
1 61559U 24185H   26065.55410050  .00000280  00000+0  26658-3 0  9994
2 61559  88.9747  70.6872 0007719 110.5460 249.6535 13.77861902 80211
QIANFAN-27              
1 61560U 24185J   26065.59139980  .00000693  00000+0  27676-3 0  9999
2 61560  88.9750  67.0935 0008551  29.6302 330.5375 14.27444622 82123
QIANFAN-28              
1 61561U 24185K   26065.60040056  .00001188  00000+0  47132-3 0  9996
2 61561  88.9765  67.0996 0008158  30.7431 329.4240 14.28215080 82141
QIANFAN-29              
1 61562U 24185L   26065.57693706  .00000204  00000+0  29641-3 0  9992
2 61562  88.9719  72.6302 0010457 157.1085 203.0535 13.51044035 79110
QIANFAN-30              
1 61563U 24185M   26065.54120239  .00000199  00000+0  29327-3 0  9990
2 61563  88.9739  72.1914 0008741 141.6254 218.5520 13.50019069 79377
QIANFAN-31              
1 61564U 24185N   26065.60694952  .00000234  00000+0  30640-3 0  9996
2 61564  88.9724  71.8530 0008410 133.0729 227.1131 13.58003522 79545
QIANFAN-32              
1 61565U 24185P   26065.61148534  .00000155  00000+0  22229-3 0  9994
2 61565  88.9783  72.3440 0009807 169.8970 190.2380 13.50764249 79361
QIANFAN-33              
1 61566U 24185Q   26065.58876646  .00000521  00000+0  36637-3 0  9998
2 61566  88.9738  69.4410 0009274  71.2373 288.9810 13.96624006 80863
QIANFAN-34              
1 61567U 24185R   26065.63829377  .00000571  00000+0  36308-3 0  9994
2 61567  88.9715  68.8876 0008298  74.6009 285.6087 14.02384182 81111
