[{"OBJECT_NAME":"QIANFAN-18","OBJECT_ID":"2024-140T","EPOCH":"2026-03-06T15:03:43.262784","MEAN_MOTION":13.51003836,"ECCENTRICITY":0.00130543,"INCLINATION":88.9718,"RA_OF_ASC_NODE":290.2954,"ARG_OF_PERICENTER":311.8714,"MEAN_ANOMALY":48.1322,"EPHEMERIS_TYPE":0,"CLASSIFICATION_TYPE":"U","NORAD_CAT_ID":60396,"ELEMENT_SET_NO":999,"REV_AT_EPOCH":7885,"BSTAR":0.00012702908,"MEAN_MOTION_DOT":9.4e-7,"MEAN_MOTION_DDOT":0},{"OBJECT_NAME":"QIANFAN-19","OBJECT_ID":"2024-185A","EPOCH":"2026-03-06T13:31:49.295136","MEAN_MOTION":14.14388356,"ECCENTRICITY":0.00085527,"INCLINATION":88.976,"RA_OF_ASC_NODE":68.316,"ARG_OF_PERICENTER":48.5745,"MEAN_ANOMALY":311.6176,"EPHEMERIS_TYPE":0,"CLASSIFICATION_TYPE":"U","NORAD_CAT_ID":61552,"ELEMENT_SET_NO":999,"REV_AT_EPOCH":8151,"BSTAR":0.00034058221,"MEAN_MOTION_DOT":6.66e-6,"MEAN_MOTION_DDOT":0},{"OBJECT_NAME":"QIANFAN-20","OBJECT_ID":"2024-185B","EPOCH":"2026-03-06T15:16:22.933920","MEAN_MOTION":14.08934808,"ECCENTRICITY":0.00078745,"INCLINATION":88.9758,"RA_OF_ASC_NODE":68.7162,"ARG_OF_PERICENTER":80.3375,"MEAN_ANOMALY":279.8698,"EPHEMERIS_TYPE":0,"CLASSIFICATION_TYPE":"U","NORAD_CAT_ID":61553,"ELEMENT_SET_NO":999,"REV_AT_EPOCH":8130,"BSTAR":0.0003614606,"MEAN_MOTION_DOT":6.39e-6,"MEAN_MOTION_DDOT":0},{"OBJECT_NAME":"QIANFAN-21","OBJECT_ID":"2024-185C","EPOCH":"2026-03-06T14:09:42.745248","MEAN_MOTION":14.22729713,"ECCENTRICITY":0.00130244,"INCLINATION":88.9678,"RA_OF_ASC_NODE":67.1379,"ARG_OF_PERICENTER":90.2822,"MEAN_ANOMALY":269.9862,"EPHEMERIS_TYPE":0,"CLASSIFICATION_TYPE":"U","NORAD_CAT_ID":61554,"ELEMENT_SET_NO":999,"REV_AT_EPOCH":8189,"BSTAR":0.00036652835,"MEAN_MOTION_DOT":8.36e-6,"MEAN_MOTION_DDOT":0},{"OBJECT_NAME":"QIANFAN-22","OBJECT_ID":"2024-185D","EPOCH":"2026-03-06T14:06:59.642784","MEAN_MOTION":13.86339419,"ECCENTRICITY":0.00086276,"INCLINATION":88.9741,"RA_OF_ASC_NODE":70.0419,"ARG_OF_PERICENTER":97.7353,"MEAN_ANOMALY":262.4799,"EPHEMERIS_TYPE":0,"CLASSIFICATION_TYPE":"U","NORAD_CAT_ID":61555,"ELEMENT_SET_NO":999,"REV_AT_EPOCH":8055,"BSTAR":0.00026904889,"MEAN_MOTION_DOT":3.24e-6,"MEAN_MOTION_DDOT":0},{"OBJECT_NAME":"QIANFAN-23","OBJECT_ID":"2024-185E","EPOCH":"2026-03-06T13:29:40.134048","MEAN_MOTION":14.16393655,"ECCENTRICITY":0.00095024,"INCLINATION":88.9753,"RA_OF_ASC_NODE":68.0865,"ARG_OF_PERICENTER":56.4172,"MEAN_ANOMALY":303.7922,"EPHEMERIS_TYPE":0,"CLASSIFICATION_TYPE":"U","NORAD_CAT_ID":61556,"ELEMENT_SET_NO":999,"REV_AT_EPOCH":8161,"BSTAR":0.00036522558,"MEAN_MOTION_DOT":7.4e-6,"MEAN_MOTION_DDOT":0},{"OBJECT_NAME":"QIANFAN-24","OBJECT_ID":"2024-185F","EPOCH":"2026-03-06T14:12:59.188608","MEAN_MOTION":14.23934328,"ECCENTRICITY":0.00105036,"INCLINATION":88.9736,"RA_OF_ASC_NODE":67.3508,"ARG_OF_PERICENTER":36.3025,"MEAN_ANOMALY":323.8877,"EPHEMERIS_TYPE":0,"CLASSIFICATION_TYPE":"U","NORAD_CAT_ID":61557,"ELEMENT_SET_NO":999,"REV_AT_EPOCH":8195,"BSTAR":0.00044607049,"MEAN_MOTION_DOT":1.037e-5,"MEAN_MOTION_DDOT":0},{"OBJECT_NAME":"QIANFAN-25","OBJECT_ID":"2024-185G","EPOCH":"2026-03-06T13:29:18.122784","MEAN_MOTION":14.05996177,"ECCENTRICITY":0.00119103,"INCLINATION":88.975,"RA_OF_ASC_NODE":68.6833,"ARG_OF_PERICENTER":62.9773,"MEAN_ANOMALY":297.2624,"EPHEMERIS_TYPE":0,"CLASSIFICATION_TYPE":"U","NORAD_CAT_ID":61558,"ELEMENT_SET_NO":999,"REV_AT_EPOCH":8128,"BSTAR":0.00034230747,"MEAN_MOTION_DOT":5.75e-6,"MEAN_MOTION_DDOT":0},{"OBJECT_NAME":"QIANFAN-26","OBJECT_ID":"2024-185H","EPOCH":"2026-03-06T13:17:54.283200","MEAN_MOTION":13.77861902,"ECCENTRICITY":0.00077195,"INCLINATION":88.9747,"RA_OF_ASC_NODE":70.6872,"ARG_OF_PERICENTER":110.546,"MEAN_ANOMALY":249.6535,"EPHEMERIS_TYPE":0,"CLASSIFICATION_TYPE":"U","NORAD_CAT_ID":61559,"ELEMENT_SET_NO":999,"REV_AT_EPOCH":8021,"BSTAR":0.0002665753,"MEAN_MOTION_DOT":2.8e-6,"MEAN_MOTION_DDOT":0},{"OBJECT_NAME":"QIANFAN-27","OBJECT_ID":"2024-185J","EPOCH":"2026-03-06T14:11:36.942720","MEAN_MOTION":14.27444622,"ECCENTRICITY":0.00085517,"INCLINATION":88.975,"RA_OF_ASC_NODE":67.0935,"ARG_OF_PERICENTER":29.6302,"MEAN_ANOMALY":330.5375,"EPHEMERIS_TYPE":0,"CLASSIFICATION_TYPE":"U","NORAD_CAT_ID":61560,"ELEMENT_SET_NO":999,"REV_AT_EPOCH":8212,"BSTAR":0.00027676025,"MEAN_MOTION_DOT":6.93e-6,"MEAN_MOTION_DDOT":0},{"OBJECT_NAME":"QIANFAN-28","OBJECT_ID":"2024-185K","EPOCH":"2026-03-06T14:24:34.608384","MEAN_MOTION":14.2821508,"ECCENTRICITY":0.00081587,"INCLINATION":88.9765,"RA_OF_ASC_NODE":67.0996,"ARG_OF_PERICENTER":30.7431,"MEAN_ANOMALY":329.424,"EPHEMERIS_TYPE":0,"CLASSIFICATION_TYPE":"U","NORAD_CAT_ID":61561,"ELEMENT_SET_NO":999,"REV_AT_EPOCH":8214,"BSTAR":0.00047132307,"MEAN_MOTION_DOT":1.188e-5,"MEAN_MOTION_DDOT":0},{"OBJECT_NAME":"QIANFAN-29","OBJECT_ID":"2024-185L","EPOCH":"2026-03-06T13:50:47.361984","MEAN_MOTION":13.51044035,"ECCENTRICITY":0.0010457,"INCLINATION":88.9719,"RA_OF_ASC_NODE":72.6302,"ARG_OF_PERICENTER":157.1085,"MEAN_ANOMALY":203.0535,"EPHEMERIS_TYPE":0,"CLASSIFICATION_TYPE":"U","NORAD_CAT_ID":61562,"ELEMENT_SET_NO":999,"REV_AT_EPOCH":7911,"BSTAR":0.00029640549,"MEAN_MOTION_DOT":2.04e-6,"MEAN_MOTION_DDOT":0},{"OBJECT_NAME":"QIANFAN-30","OBJECT_ID":"2024-185M","EPOCH":"2026-03-06T12:59:19.886496","MEAN_MOTION":13.50019069,"ECCENTRICITY":0.00087414,"INCLINATION":88.9739,"RA_OF_ASC_NODE":72.1914,"ARG_OF_PERICENTER":141.6254,"MEAN_ANOMALY":218.552,"EPHEMERIS_TYPE":0,"CLASSIFICATION_TYPE":"U","NORAD_CAT_ID":61563,"ELEMENT_SET_NO":999,"REV_AT_EPOCH":7937,"BSTAR":0.00029327288,"MEAN_MOTION_DOT":1.99e-6,"MEAN_MOTION_DDOT":0},{"OBJECT_NAME":"QIANFAN-31","OBJECT_ID":"2024-185N","EPOCH":"2026-03-06T14:34:00.438528","MEAN_MOTION":13.58003522,"ECCENTRICITY":0.00084109,"INCLINATION":88.9724,"RA_OF_ASC_NODE":71.853,"ARG_OF_PERICENTER":133.0729,"MEAN_ANOMALY":227.1131,"EPHEMERIS_TYPE":0,"CLASSIFICATION_TYPE":"U","NORAD_CAT_ID":61564,"ELEMENT_SET_NO":999,"REV_AT_EPOCH":7954,"BSTAR":0.00030640365,"MEAN_MOTION_DOT":2.34e-6,"MEAN_MOTION_DDOT":0},{"OBJECT_NAME":"QIANFAN-32","OBJECT_ID":"2024-185P","EPOCH":"2026-03-06T14:40:32.333376","MEAN_MOTION":13.50764249,"ECCENTRICITY":0.00098078,"INCLINATION":88.9783,"RA_OF_ASC_NODE":72.344,"ARG_OF_PERICENTER":169.897,"MEAN_ANOMALY":190.238,"EPHEMERIS_TYPE":0,"CLASSIFICATION_TYPE":"U","NORAD_CAT_ID":61565,"ELEMENT_SET_NO":999,"REV_AT_EPOCH":7936,"BSTAR":0.00022229228,"MEAN_MOTION_DOT":1.55e-6,"MEAN_MOTION_DDOT":0},{"OBJECT_NAME":"QIANFAN-33","OBJECT_ID":"2024-185Q","EPOCH":"2026-03-06T14:07:49.422144","MEAN_MOTION":13.96624006,"ECCENTRICITY":0.0009274,"INCLINATION":88.9738,"RA_OF_ASC_NODE":69.441,"ARG_OF_PERICENTER":71.2373,"MEAN_ANOMALY":288.981,"EPHEMERIS_TYPE":0,"CLASSIFICATION_TYPE":"U","NORAD_CAT_ID":61566,"ELEMENT_SET_NO":999,"REV_AT_EPOCH":8086,"BSTAR":0.00036636882,"MEAN_MOTION_DOT":5.21e-6,"MEAN_MOTION_DDOT":0},{"OBJECT_NAME":"QIANFAN-34","OBJECT_ID":"2024-185R","EPOCH":"2026-03-06T15:19:08.581728","MEAN_MOTION":14.02384182,"ECCENTRICITY":0.00082982,"INCLINATION":88.9715,"RA_OF_ASC_NODE":68.8876,"ARG_OF_PERICENTER":74.6009,"MEAN_ANOMALY":285.6087,"EPHEMERIS_TYPE":0,"CLASSIFICATION_TYPE":"U","NORAD_CAT_ID":61567,"ELEMENT_SET_NO":999,"REV_AT_EPOCH":8111,"BSTAR":0.00036308064,"MEAN_MOTION_DOT":5.71e-6,"MEAN_MOTION_DDOT":0}]
